FLOCK 4G-34             
1 62650U 25009AT  26116.48110744  .00013210  00000+0  48260-3 0  9999
2 62650  97.3969 198.4017 0003418 121.2839 238.8736 15.28222954 71012
FLOCK 4G-21             
1 62651U 25009AU  26116.49271940  .00013724  00000+0  48141-3 0  9995
2 62651  97.3995 199.1716 0003244 123.0799 237.0754 15.29548520 71054
FLOCK 4G-31             
1 62652U 25009AV  26116.50116983  .00013575  00000+0  49831-3 0  9994
2 62652  97.3972 198.4105 0003022 123.9752 236.1775 15.28059794 71014
FLOCK 4G-4              
1 62659U 25009BC  26115.79332600  .00010029  00000+0  37185-3 0  9997
2 62659  97.3954 197.4473 0003834 132.3387 227.8177 15.27803809128500
FLOCK 4G-6              
1 62660U 25009BD  26116.44897366  .00012299  00000+0  44470-3 0  9993
2 62660  97.3947 198.1829 0004630 140.8796 219.2779 15.28576829128592
FLOCK 4G-2              
1 62661U 25009BE  26116.26192198  .00013088  00000+0  46941-3 0  9997
2 62661  97.4011 198.5323 0005436 138.1476 222.0180 15.28822942128597
FLOCK 4G-5              
1 62663U 25009BG  26116.22565470  .00011901  00000+0  41740-3 0  9996
2 62663  97.4024 198.7979 0004821 123.8397 236.3303 15.29583141 70993
FLOCK 4G-1              
1 62666U 25009BK  26116.49829439  .00013995  00000+0  50554-3 0  9994
2 62666  97.4025 198.7547 0005691 136.2110 223.9582 15.28571419 71014
FLOCK 4G-14             
1 62667U 25009BL  26116.50749660  .00013410  00000+0  49008-3 0  9998
2 62667  97.4025 198.6097 0005880 131.5567 228.6177 15.28198243 71009
FLOCK 4G-10             
1 62670U 25009BP  26116.45662840  .00012195  00000+0  44553-3 0  9999
2 62670  97.3929 197.9536 0005697 145.3251 214.8361 15.28233918128637
FLOCK 4G-36             
1 62675U 25009BU  26115.79817374  .00011130  00000+0  40583-3 0  9991
2 62675  97.4016 197.8251 0006074 137.3786 222.7926 15.28318127 70892
FLOCK 4G-15             
1 62678U 25009BX  26116.46255174  .00012695  00000+0  46199-3 0  9999
2 62678  97.4022 198.6193 0006238 132.9318 227.2445 15.28347844128641
FLOCK 4G-30             
1 62679U 25009BY  26116.45309963  .00048275  00000+0  17287-2 0  9993
2 62679  97.3924 197.9724 0005549 148.8595 211.2974 15.28587745128636
FLOCK 4G-18             
1 62680U 25009BZ  26116.26391119  .00012947  00000+0  47151-3 0  9999
2 62680  97.4016 198.2508 0006506 143.8526 216.3154 15.28318054128606
FLOCK 4G-17             
1 62681U 25009CA  26116.49750372  .00014141  00000+0  51213-3 0  9997
2 62681  97.3930 198.2025 0005863 146.2097 213.9518 15.28484377128654
FLOCK 4G-33             
1 62685U 25009CE  26116.48240733  .00007859  00000+0  31915-3 0  9990
2 62685  97.3949 196.9703 0006779 141.6793 218.4927 15.24831331 70927
