[{"OBJECT_NAME":"FLOCK 4G-34","OBJECT_ID":"2025-009AT","EPOCH":"2026-04-26T11:32:47.682816","MEAN_MOTION":15.28222954,"ECCENTRICITY":0.0003418,"INCLINATION":97.3969,"RA_OF_ASC_NODE":198.4017,"ARG_OF_PERICENTER":121.2839,"MEAN_ANOMALY":238.8736,"EPHEMERIS_TYPE":0,"CLASSIFICATION_TYPE":"U","NORAD_CAT_ID":62650,"ELEMENT_SET_NO":999,"REV_AT_EPOCH":7101,"BSTAR":0.0004826,"MEAN_MOTION_DOT":0.0001321,"MEAN_MOTION_DDOT":0},{"OBJECT_NAME":"FLOCK 4G-21","OBJECT_ID":"2025-009AU","EPOCH":"2026-04-26T11:49:30.956160","MEAN_MOTION":15.2954852,"ECCENTRICITY":0.0003244,"INCLINATION":97.3995,"RA_OF_ASC_NODE":199.1716,"ARG_OF_PERICENTER":123.0799,"MEAN_ANOMALY":237.0754,"EPHEMERIS_TYPE":0,"CLASSIFICATION_TYPE":"U","NORAD_CAT_ID":62651,"ELEMENT_SET_NO":999,"REV_AT_EPOCH":7105,"BSTAR":0.00048141,"MEAN_MOTION_DOT":0.00013724,"MEAN_MOTION_DDOT":0},{"OBJECT_NAME":"FLOCK 4G-31","OBJECT_ID":"2025-009AV","EPOCH":"2026-04-26T12:01:41.073312","MEAN_MOTION":15.28059794,"ECCENTRICITY":0.0003022,"INCLINATION":97.3972,"RA_OF_ASC_NODE":198.4105,"ARG_OF_PERICENTER":123.9752,"MEAN_ANOMALY":236.1775,"EPHEMERIS_TYPE":0,"CLASSIFICATION_TYPE":"U","NORAD_CAT_ID":62652,"ELEMENT_SET_NO":999,"REV_AT_EPOCH":7101,"BSTAR":0.00049831,"MEAN_MOTION_DOT":0.00013575,"MEAN_MOTION_DDOT":0},{"OBJECT_NAME":"FLOCK 4G-4","OBJECT_ID":"2025-009BC","EPOCH":"2026-04-25T19:02:23.366400","MEAN_MOTION":15.27803809,"ECCENTRICITY":0.00038345,"INCLINATION":97.3954,"RA_OF_ASC_NODE":197.4473,"ARG_OF_PERICENTER":132.3387,"MEAN_ANOMALY":227.8177,"EPHEMERIS_TYPE":0,"CLASSIFICATION_TYPE":"U","NORAD_CAT_ID":62659,"ELEMENT_SET_NO":999,"REV_AT_EPOCH":12850,"BSTAR":0.00037185302,"MEAN_MOTION_DOT":0.00010029,"MEAN_MOTION_DDOT":0},{"OBJECT_NAME":"FLOCK 4G-6","OBJECT_ID":"2025-009BD","EPOCH":"2026-04-26T10:46:31.324224","MEAN_MOTION":15.28576829,"ECCENTRICITY":0.000463,"INCLINATION":97.3947,"RA_OF_ASC_NODE":198.1829,"ARG_OF_PERICENTER":140.8796,"MEAN_ANOMALY":219.2779,"EPHEMERIS_TYPE":0,"CLASSIFICATION_TYPE":"U","NORAD_CAT_ID":62660,"ELEMENT_SET_NO":999,"REV_AT_EPOCH":12859,"BSTAR":0.0004447,"MEAN_MOTION_DOT":0.00012299,"MEAN_MOTION_DDOT":0},{"OBJECT_NAME":"FLOCK 4G-2","OBJECT_ID":"2025-009BE","EPOCH":"2026-04-26T06:17:10.059072","MEAN_MOTION":15.28822942,"ECCENTRICITY":0.0005436,"INCLINATION":97.4011,"RA_OF_ASC_NODE":198.5323,"ARG_OF_PERICENTER":138.1476,"MEAN_ANOMALY":222.018,"EPHEMERIS_TYPE":0,"CLASSIFICATION_TYPE":"U","NORAD_CAT_ID":62661,"ELEMENT_SET_NO":999,"REV_AT_EPOCH":12859,"BSTAR":0.00046941,"MEAN_MOTION_DOT":0.00013088,"MEAN_MOTION_DDOT":0},{"OBJECT_NAME":"FLOCK 4G-5","OBJECT_ID":"2025-009BG","EPOCH":"2026-04-26T05:24:56.566080","MEAN_MOTION":15.29583141,"ECCENTRICITY":0.0004821,"INCLINATION":97.4024,"RA_OF_ASC_NODE":198.7979,"ARG_OF_PERICENTER":123.8397,"MEAN_ANOMALY":236.3303,"EPHEMERIS_TYPE":0,"CLASSIFICATION_TYPE":"U","NORAD_CAT_ID":62663,"ELEMENT_SET_NO":999,"REV_AT_EPOCH":7099,"BSTAR":0.0004174,"MEAN_MOTION_DOT":0.00011901,"MEAN_MOTION_DDOT":0},{"OBJECT_NAME":"FLOCK 4G-1","OBJECT_ID":"2025-009BK","EPOCH":"2026-04-26T11:57:32.635296","MEAN_MOTION":15.28571419,"ECCENTRICITY":0.0005691,"INCLINATION":97.4025,"RA_OF_ASC_NODE":198.7547,"ARG_OF_PERICENTER":136.211,"MEAN_ANOMALY":223.9582,"EPHEMERIS_TYPE":0,"CLASSIFICATION_TYPE":"U","NORAD_CAT_ID":62666,"ELEMENT_SET_NO":999,"REV_AT_EPOCH":7101,"BSTAR":0.00050554,"MEAN_MOTION_DOT":0.00013995,"MEAN_MOTION_DDOT":0},{"OBJECT_NAME":"FLOCK 4G-14","OBJECT_ID":"2025-009BL","EPOCH":"2026-04-26T12:10:47.706240","MEAN_MOTION":15.28198243,"ECCENTRICITY":0.000588,"INCLINATION":97.4025,"RA_OF_ASC_NODE":198.6097,"ARG_OF_PERICENTER":131.5567,"MEAN_ANOMALY":228.6177,"EPHEMERIS_TYPE":0,"CLASSIFICATION_TYPE":"U","NORAD_CAT_ID":62667,"ELEMENT_SET_NO":999,"REV_AT_EPOCH":7100,"BSTAR":0.00049008,"MEAN_MOTION_DOT":0.0001341,"MEAN_MOTION_DDOT":0},{"OBJECT_NAME":"FLOCK 4G-10","OBJECT_ID":"2025-009BP","EPOCH":"2026-04-26T10:57:32.693760","MEAN_MOTION":15.28233918,"ECCENTRICITY":0.0005697,"INCLINATION":97.3929,"RA_OF_ASC_NODE":197.9536,"ARG_OF_PERICENTER":145.3251,"MEAN_ANOMALY":214.8361,"EPHEMERIS_TYPE":0,"CLASSIFICATION_TYPE":"U","NORAD_CAT_ID":62670,"ELEMENT_SET_NO":999,"REV_AT_EPOCH":12863,"BSTAR":0.00044553,"MEAN_MOTION_DOT":0.00012195,"MEAN_MOTION_DDOT":0},{"OBJECT_NAME":"FLOCK 4G-36","OBJECT_ID":"2025-009BU","EPOCH":"2026-04-25T19:09:22.211136","MEAN_MOTION":15.28318127,"ECCENTRICITY":0.00060741,"INCLINATION":97.4016,"RA_OF_ASC_NODE":197.8251,"ARG_OF_PERICENTER":137.3786,"MEAN_ANOMALY":222.7926,"EPHEMERIS_TYPE":0,"CLASSIFICATION_TYPE":"U","NORAD_CAT_ID":62675,"ELEMENT_SET_NO":999,"REV_AT_EPOCH":7089,"BSTAR":0.00040582926,"MEAN_MOTION_DOT":0.0001113,"MEAN_MOTION_DDOT":0},{"OBJECT_NAME":"FLOCK 4G-15","OBJECT_ID":"2025-009BX","EPOCH":"2026-04-26T11:06:04.470336","MEAN_MOTION":15.28347844,"ECCENTRICITY":0.0006238,"INCLINATION":97.4022,"RA_OF_ASC_NODE":198.6193,"ARG_OF_PERICENTER":132.9318,"MEAN_ANOMALY":227.2445,"EPHEMERIS_TYPE":0,"CLASSIFICATION_TYPE":"U","NORAD_CAT_ID":62678,"ELEMENT_SET_NO":999,"REV_AT_EPOCH":12864,"BSTAR":0.00046199,"MEAN_MOTION_DOT":0.00012695,"MEAN_MOTION_DDOT":0},{"OBJECT_NAME":"FLOCK 4G-30","OBJECT_ID":"2025-009BY","EPOCH":"2026-04-26T10:52:27.808032","MEAN_MOTION":15.28587745,"ECCENTRICITY":0.0005549,"INCLINATION":97.3924,"RA_OF_ASC_NODE":197.9724,"ARG_OF_PERICENTER":148.8595,"MEAN_ANOMALY":211.2974,"EPHEMERIS_TYPE":0,"CLASSIFICATION_TYPE":"U","NORAD_CAT_ID":62679,"ELEMENT_SET_NO":999,"REV_AT_EPOCH":12863,"BSTAR":0.0017287,"MEAN_MOTION_DOT":0.00048275,"MEAN_MOTION_DDOT":0},{"OBJECT_NAME":"FLOCK 4G-18","OBJECT_ID":"2025-009BZ","EPOCH":"2026-04-26T06:20:01.926816","MEAN_MOTION":15.28318054,"ECCENTRICITY":0.0006506,"INCLINATION":97.4016,"RA_OF_ASC_NODE":198.2508,"ARG_OF_PERICENTER":143.8526,"MEAN_ANOMALY":216.3154,"EPHEMERIS_TYPE":0,"CLASSIFICATION_TYPE":"U","NORAD_CAT_ID":62680,"ELEMENT_SET_NO":999,"REV_AT_EPOCH":12860,"BSTAR":0.00047151,"MEAN_MOTION_DOT":0.00012947,"MEAN_MOTION_DDOT":0},{"OBJECT_NAME":"FLOCK 4G-17","OBJECT_ID":"2025-009CA","EPOCH":"2026-04-26T11:56:24.321408","MEAN_MOTION":15.28484377,"ECCENTRICITY":0.0005863,"INCLINATION":97.393,"RA_OF_ASC_NODE":198.2025,"ARG_OF_PERICENTER":146.2097,"MEAN_ANOMALY":213.9518,"EPHEMERIS_TYPE":0,"CLASSIFICATION_TYPE":"U","NORAD_CAT_ID":62681,"ELEMENT_SET_NO":999,"REV_AT_EPOCH":12865,"BSTAR":0.00051213,"MEAN_MOTION_DOT":0.00014141,"MEAN_MOTION_DDOT":0},{"OBJECT_NAME":"FLOCK 4G-33","OBJECT_ID":"2025-009CE","EPOCH":"2026-04-26T11:34:39.993312","MEAN_MOTION":15.24831331,"ECCENTRICITY":0.0006779,"INCLINATION":97.3949,"RA_OF_ASC_NODE":196.9703,"ARG_OF_PERICENTER":141.6793,"MEAN_ANOMALY":218.4927,"EPHEMERIS_TYPE":0,"CLASSIFICATION_TYPE":"U","NORAD_CAT_ID":62685,"ELEMENT_SET_NO":999,"REV_AT_EPOCH":7092,"BSTAR":0.00031915,"MEAN_MOTION_DOT":7.859e-5,"MEAN_MOTION_DDOT":0}]
